*******************************************************************************
Ephemeris / WWW_USER Fri Mar  7 09:59:49 2025 Pasadena, USA      / Horizons    
*******************************************************************************
Target body name: 358P/PANSTARRS                  {source: JPL#33}
Center body name: Earth (399)                     {source: DE441}
Center-site name: Mauna Kea
*******************************************************************************
Start time      : A.D. 2018-Aug-27 04:51:00.0000 UT      
Stop  time      : A.D. 2018-Aug-27 15:56:00.0000 UT      
Step-size       : 1 minutes
*******************************************************************************
Target pole/equ : undefined
Target radii    : undefined                                                    
Center geodetic : 204.5278, 19.8260847, 4.21024   {E-lon(deg),Lat(deg),Alt(km)}
Center cylindric: 204.5278, 6006.35451, 2151.0229 {E-lon(deg),Dxy(km),Dz(km)}
Center pole/equ : ITRF93                          {East-longitude positive}
Center radii    : 6378.137, 6378.137, 6356.752 km {Equator_a, b, pole_c}       
Target primary  : Sun
Vis. interferer : MOON (R_eq= 1737.400) km        {source: DE441}
Rel. light bend : Sun                             {source: DE441}
Rel. lght bnd GM: 1.3271E+11 km^3/s^2                                          
Small-body perts: Yes                             {source: SB441-N16}
Atmos refraction: NO (AIRLESS)
RA format       : HMS
Time format     : CAL 
Calendar mode   : Mixed Julian/Gregorian
RTS-only print  : NO       
EOP file        : eop.250306.p250602                                           
EOP coverage    : DATA-BASED 1962-JAN-20 TO 2025-MAR-06. PREDICTS-> 2025-JUN-01
Units conversion: 1 au= 149597870.700 km, c= 299792.458 km/s, 1 day= 86400.0 s 
Table cut-offs 1: Elevation (-90.0deg=NO ),Airmass (>38.000=NO), Daylight (YES)
Table cut-offs 2: Solar elongation (  0.0,180.0=NO ),Local Hour Angle( 0.0=NO )
Table cut-offs 3: RA/DEC angular rate (     0.0=NO )                           
*******************************************************************************
Initial IAU76/J2000 heliocentric ecliptic osculating elements (au, days, deg.):
  EPOCH=  2459793.5 ! 2022-Aug-02.0000000 (TDB)    RMSW= n.a.                  
   EC= .2388922136090974   QR= 2.394903345037887   TP= 2460259.6862889272      
   OM= 85.70246509974154   W= 299.7728624007243    IN= 11.06025031481611       
  Equivalent ICRF heliocentric cartesian coordinates (au, au/d):
   X= 3.243054425204740E-01  Y=-2.897679241187805E+00  Z=-1.376383147061824E+00
  VX= 8.746409534656921E-03 VY= 3.598394346577952E-03 VZ=-2.469697424538527E-04
Comet physical (GM= km^3/s^2; RAD= km):                                        
   GM= n.a.                RAD= n.a.                                           
   M1=  7.8      M2=  17.2     k1=  30.    k2=  5.      PHCOF=  .030           
Comet non-gravitational force model (AMRAT=m^2/kg;A1-A3=au/d^2;DT=days;R0=au): 
   AMRAT=  0.                                      DT=  0.                     
   A1= 0.                  A2= -2.303385920823E-10 A3= 0.                      
 Standard model:                                                               
   ALN=  .1112620426   NK=  4.6142   NM=  2.15     NN=  5.093    R0=  2.808    
*******************************************************************************
 Date__(UT)__HR:MN     R.A._________(ICRF)_________DEC
******************************************************
$$SOE
 2018-Aug-27 14:36  m  05 47 55.680026 +19 50 09.70842
 2018-Aug-27 14:37  m  05 47 55.741228 +19 50 09.80333
 2018-Aug-27 14:38  m  05 47 55.802425 +19 50 09.89822
 2018-Aug-27 14:39  m  05 47 55.863620 +19 50 09.99310
 2018-Aug-27 14:40  m  05 47 55.924811 +19 50 10.08797
 2018-Aug-27 14:41  m  05 47 55.985999 +19 50 10.18282
 2018-Aug-27 14:42  m  05 47 56.047184 +19 50 10.27766
 2018-Aug-27 14:43  m  05 47 56.108365 +19 50 10.37248
 2018-Aug-27 14:44  m  05 47 56.169543 +19 50 10.46729
 2018-Aug-27 14:45  m  05 47 56.230718 +19 50 10.56208
 2018-Aug-27 14:46  m  05 47 56.291890 +19 50 10.65686
 2018-Aug-27 14:47  m  05 47 56.353058 +19 50 10.75162
 2018-Aug-27 14:48  m  05 47 56.414223 +19 50 10.84636
 2018-Aug-27 14:49  m  05 47 56.475385 +19 50 10.94109
 2018-Aug-27 14:50 Am  05 47 56.536544 +19 50 11.03581
 2018-Aug-27 14:51 Am  05 47 56.597699 +19 50 11.13051
 2018-Aug-27 14:52 Am  05 47 56.658852 +19 50 11.22520
 2018-Aug-27 14:53 Am  05 47 56.720001 +19 50 11.31987
 2018-Aug-27 14:54 Am  05 47 56.781147 +19 50 11.41452
 2018-Aug-27 14:55 Am  05 47 56.842290 +19 50 11.50916
 2018-Aug-27 14:56 Am  05 47 56.903430 +19 50 11.60378
 2018-Aug-27 14:57 Am  05 47 56.964566 +19 50 11.69839
 2018-Aug-27 14:58 Am  05 47 57.025700 +19 50 11.79298
 2018-Aug-27 14:59 Am  05 47 57.086831 +19 50 11.88755
 2018-Aug-27 15:00 Am  05 47 57.147958 +19 50 11.98211
 2018-Aug-27 15:01 Am  05 47 57.209082 +19 50 12.07666
 2018-Aug-27 15:02 Am  05 47 57.270204 +19 50 12.17118
 2018-Aug-27 15:03 Am  05 47 57.331322 +19 50 12.26569
 2018-Aug-27 15:04 Am  05 47 57.392438 +19 50 12.36019
 2018-Aug-27 15:05 Am  05 47 57.453550 +19 50 12.45467
 2018-Aug-27 15:06 Am  05 47 57.514659 +19 50 12.54913
 2018-Aug-27 15:07 Am  05 47 57.575766 +19 50 12.64358
 2018-Aug-27 15:08 Am  05 47 57.636869 +19 50 12.73801
 2018-Aug-27 15:09 Am  05 47 57.697970 +19 50 12.83242
 2018-Aug-27 15:10 Am  05 47 57.759067 +19 50 12.92682
 2018-Aug-27 15:11 Am  05 47 57.820162 +19 50 13.02120
 2018-Aug-27 15:12 Am  05 47 57.881254 +19 50 13.11556
 2018-Aug-27 15:13 Am  05 47 57.942342 +19 50 13.20991
 2018-Aug-27 15:14 Am  05 47 58.003428 +19 50 13.30424
 2018-Aug-27 15:15 Am  05 47 58.064511 +19 50 13.39855
 2018-Aug-27 15:16 Am  05 47 58.125592 +19 50 13.49285
 2018-Aug-27 15:17 Nm  05 47 58.186669 +19 50 13.58713
 2018-Aug-27 15:18 Nm  05 47 58.247744 +19 50 13.68139
 2018-Aug-27 15:19 Nm  05 47 58.308816 +19 50 13.77564
 2018-Aug-27 15:20 Nm  05 47 58.369885 +19 50 13.86987
 2018-Aug-27 15:21 Nm  05 47 58.430951 +19 50 13.96408
 2018-Aug-27 15:22 Nm  05 47 58.492014 +19 50 14.05827
 2018-Aug-27 15:23 Nm  05 47 58.553075 +19 50 14.15245
 2018-Aug-27 15:24 Nm  05 47 58.614133 +19 50 14.24661
 2018-Aug-27 15:25 Nm  05 47 58.675188 +19 50 14.34076
 2018-Aug-27 15:26 Nm  05 47 58.736241 +19 50 14.43488
 2018-Aug-27 15:27 Nm  05 47 58.797291 +19 50 14.52899
 2018-Aug-27 15:28 Nm  05 47 58.858338 +19 50 14.62308
 2018-Aug-27 15:29 Nm  05 47 58.919383 +19 50 14.71716
 2018-Aug-27 15:30 Nm  05 47 58.980425 +19 50 14.81121
 2018-Aug-27 15:31 Nm  05 47 59.041464 +19 50 14.90525
 2018-Aug-27 15:32 Nm  05 47 59.102501 +19 50 14.99927
 2018-Aug-27 15:33 Nm  05 47 59.163535 +19 50 15.09328
 2018-Aug-27 15:34 Nm  05 47 59.224566 +19 50 15.18726
 2018-Aug-27 15:35 Nm  05 47 59.285595 +19 50 15.28123
 2018-Aug-27 15:36 Nm  05 47 59.346621 +19 50 15.37518
 2018-Aug-27 15:37 Nm  05 47 59.407645 +19 50 15.46911
 2018-Aug-27 15:38 Nm  05 47 59.468667 +19 50 15.56303
 2018-Aug-27 15:39 Nm  05 47 59.529685 +19 50 15.65692
 2018-Aug-27 15:40 Nm  05 47 59.590702 +19 50 15.75080
 2018-Aug-27 15:41 Nm  05 47 59.651715 +19 50 15.84466
 2018-Aug-27 15:42 Nm  05 47 59.712727 +19 50 15.93850
 2018-Aug-27 15:43 Cm  05 47 59.773736 +19 50 16.03233
 2018-Aug-27 15:44 Cm  05 47 59.834742 +19 50 16.12613
 2018-Aug-27 15:45 Cm  05 47 59.895746 +19 50 16.21992
 2018-Aug-27 15:46 Cm  05 47 59.956748 +19 50 16.31369
 2018-Aug-27 15:47 Cm  05 48 00.017747 +19 50 16.40744
 2018-Aug-27 15:48 Cm  05 48 00.078744 +19 50 16.50118
 2018-Aug-27 15:49 Cm  05 48 00.139739 +19 50 16.59489
 2018-Aug-27 15:50 Cm  05 48 00.200731 +19 50 16.68859
 2018-Aug-27 15:51 Cm  05 48 00.261721 +19 50 16.78226
 2018-Aug-27 15:52 Cm  05 48 00.322708 +19 50 16.87592
 2018-Aug-27 15:53 Cm  05 48 00.383693 +19 50 16.96956
 2018-Aug-27 15:54 Cm  05 48 00.444676 +19 50 17.06319
 2018-Aug-27 15:55 Cm  05 48 00.505657 +19 50 17.15679
 2018-Aug-27 15:56 Cm  05 48 00.566636 +19 50 17.25037
